OBJECT_NAME,OBJECT_ID,EPOCH,MEAN_MOTION,ECCENTRICITY,INCLINATION,RA_OF_ASC_NODE,ARG_OF_PERICENTER,MEAN_ANOMALY,EPHEMERIS_TYPE,CLASSIFICATION_TYPE,NORAD_CAT_ID,ELEMENT_SET_NO,REV_AT_EPOCH,BSTAR,MEAN_MOTION_DOT,MEAN_MOTION_DDOT
GLOBALSTAR M069,2007-020C,2026-07-13T00:01:29.040384,12.23472161,.00017053,52.0009,179.0623,205.4166,188.5523,0,U,31573,999,88196,.57320867E-4,-.86E-6,0
GLOBALSTAR M072,2007-020D,2026-07-13T01:55:52.073184,11.91658704,.00016562,51.9946,31.3105,31.2539,144.7741,0,U,31574,999,87806,.15613787E-3,-.73E-6,0
GLOBALSTAR M066,2007-048C,2026-07-12T20:25:51.123360,12.30389166,.00056309,51.9611,344.2390,97.0286,66.9340,0,U,32265,999,86338,.24795796E-3,-.65E-6,0
GLOBALSTAR M079,2010-054A,2026-07-13T07:58:04.999584,12.62266410,.00011139,52.0051,29.0813,74.3440,282.3273,0,U,37188,999,72584,.13480198E-4,-.101E-5,0
GLOBALSTAR M074,2010-054B,2026-07-12T17:50:28.165920,12.62262035,.0000869,52.0029,30.1345,90.1164,350.4825,0,U,37189,999,72638,.36171273E-4,-.97E-6,0
GLOBALSTAR M076,2010-054C,2026-07-12T22:37:45.631200,12.62262283,.0001098,52.0044,29.7329,86.3095,61.2249,0,U,37190,999,72612,.96635536E-4,-.86E-6,0
GLOBALSTAR M077,2010-054D,2026-07-13T06:14:01.402944,11.67547614,.00023026,51.9951,113.1190,221.6558,307.2346,0,U,37191,999,72418,-.271935E-3,-.93E-6,0
GLOBALSTAR M075,2010-054E,2026-07-13T00:48:09.897696,12.62267797,.00007186,51.9950,71.4966,61.9364,77.7815,0,U,37192,999,72520,.24892418E-4,-.99E-6,0
GLOBALSTAR M073,2010-054F,2026-07-12T21:08:24.730656,12.62266872,.00010873,52.0080,346.0817,93.1551,71.1005,0,U,37193,999,72717,-.3557947E-5,-.104E-5,0
GLOBALSTAR M083,2011-033A,2026-07-13T06:12:48.686112,12.62264038,.00008167,51.9869,293.1252,103.7225,280.5961,0,U,37739,999,69624,.10803387E-3,-.84E-6,0
GLOBALSTAR M088,2011-033B,2026-07-13T07:54:06.801696,12.62269447,.00000812,52.0186,199.4005,149.8408,312.9857,0,U,37740,999,69179,.68133243E-4,-.92E-6,0
GLOBALSTAR M091,2011-033C,2026-07-13T06:30:02.365344,12.62264251,.00003832,51.9977,162.5044,20.3238,117.6967,0,U,37741,999,69257,-.59616969E-4,-.114E-5,0
GLOBALSTAR M085,2011-033D,2026-07-13T06:20:35.665152,12.62264316,.00007466,52.0122,113.8395,38.3068,129.9147,0,U,37742,999,69308,-.5651955E-4,-.114E-5,0
GLOBALSTAR M081,2011-033E,2026-07-13T04:58:34.194144,12.62265286,.00006349,51.9951,116.4193,52.1765,96.9089,0,U,37743,999,69322,-.10446786E-3,-.122E-5,0
GLOBALSTAR M089,2011-033F,2026-07-13T02:07:42.853152,12.62267557,.00006812,51.9933,70.9345,87.1405,63.6032,0,U,37744,999,69405,.22594661E-4,-.1E-5,0
GLOBALSTAR M084,2011-080A,2026-07-11T08:01:02.931744,12.62267887,.00009392,52.0028,303.7724,123.2364,270.2173,0,U,38040,999,67181,.36683377E-4,-.97E-6,0
GLOBALSTAR M080,2011-080B,2026-07-12T12:05:24.637632,12.62257343,.00003289,52.0063,301.9378,82.4207,358.7321,0,U,38041,999,67208,.89221834E-4,-.88E-6,0
GLOBALSTAR M082,2011-080C,2026-07-13T05:19:19.759008,12.62264101,.00001967,52.0061,255.2568,103.1812,292.1236,0,U,38042,999,67288,.17333769E-3,-.73E-6,0
GLOBALSTAR M092,2011-080D,2026-07-12T21:46:53.139072,12.62267739,.00008147,52.0104,346.6100,99.7089,66.4770,0,U,38043,999,67129,.82783041E-4,-.89E-6,0
GLOBALSTAR M090,2011-080E,2026-07-10T05:44:52.489824,12.62253056,.00004514,52.0114,258.2983,107.2704,288.2798,0,U,38044,999,67262,.12811834E-3,-.81E-6,0
GLOBALSTAR M086,2011-080F,2026-07-13T04:33:43.464960,12.62287707,.00015522,51.9878,249.2035,109.1563,284.4713,0,U,38045,999,67294,.14080966E-3,-.79E-6,0
GLOBALSTAR M097,2013-005A,2026-07-13T07:02:50.031168,12.62271431,.00003829,52.0026,163.8647,37.5413,322.5481,0,U,39072,999,62020,-.80268837E-4,-.118E-5,0
GLOBALSTAR M093,2013-005B,2026-07-13T06:24:16.715232,12.62266344,.00006078,52.0087,157.3029,41.5808,318.5105,0,U,39073,999,62015,-.59923026E-4,-.115E-5,0
GLOBALSTAR M094,2013-005C,2026-07-12T20:53:56.397696,12.62264077,.00009481,51.9967,72.6003,58.2720,301.8239,0,U,39074,999,62171,-.95421143E-4,-.121E-5,0
GLOBALSTAR M096,2013-005D,2026-07-13T04:49:31.323072,12.62265679,.00007021,52.0067,120.4160,38.1669,321.9247,0,U,39075,999,62067,-.75048558E-4,-.117E-5,0
GLOBALSTAR M078,2013-005E,2026-07-12T01:34:27.467616,12.62260125,.00007584,51.9843,207.8490,328.5209,31.5612,0,U,39076,999,61915,.11341567E-3,-.83E-6,0
GLOBALSTAR M095,2013-005F,2026-07-12T09:48:59.292576,12.62264177,.00003526,52.0054,204.4426,10.4758,349.6116,0,U,39077,999,61905,.12838796E-3,-.81E-6,0
GLOBALSTAR M087,2022-064A,2026-07-12T13:55:56.188416,12.62269324,.0000929,52.0015,345.1442,82.3508,277.7464,0,U,52888,999,19434,.3152E-5,-.103E-5,0
